start=new Date('2022-05-13T00:00:00.000Z').valueOf();
sats=[{"EPOCH":"2022-05-12T18:47:10.217760","REV_AT_EPOCH":"6194","TLE_LINE2":"2 48114  53.0542 317.5904 0001336  86.6952 273.4190 15.06417852 61942","LAUNCH_DATE":"2021-04-07","FILE":"3442534","REF_FRAME":"TEME","MEAN_MOTION":"15.06417852","EPHEMERIS_TYPE":"0","ARG_OF_PERICENTER":"86.6952","RCS_SIZE":"LARGE","MEAN_ELEMENT_THEORY":"SGP4","COUNTRY_CODE":"US","OBJECT_ID":"2021-027Y","INCLINATION":"53.0542","MEAN_MOTION_DDOT":"0.0000000000000","CENTER_NAME":"EARTH","MEAN_MOTION_DOT":"-0.00002106","PERIAPSIS":"546.234","DECAY_DATE":null,"OBJECT_NAME":"STARLINK-2451","OBJECT_TYPE":"PAYLOAD","GP_ID":"203390887","SEMIMAJOR_AXIS":"6925.294","RA_OF_ASC_NODE":"317.5904","ELEMENT_SET_NO":"999","NORAD_CAT_ID":"48114","APOAPSIS":"548.084","SITE":"AFETR","MEAN_ANOMALY":"273.4190","TIME_SYSTEM":"UTC","ECCENTRICITY":"0.00013360","CLASSIFICATION_TYPE":"U","PERIOD":"95.591","BSTAR":"-0.00012247000000","TLE_LINE1":"1 48114U 21027Y   22132.78275715 -.00002106  00000-0 -12247-3 0  9992"},{"FILE":"3442534","REF_FRAME":"TEME","LAUNCH_DATE":"2021-04-07","TLE_LINE2":"2 48115  53.0547 312.1622 0001438  79.2137 280.9014 15.06404698 62024","EPOCH":"2022-05-12T21:03:11.278368","REV_AT_EPOCH":"6202","PERIAPSIS":"546.203","DECAY_DATE":null,"MEAN_MOTION_DDOT":"0.0000000000000","CENTER_NAME":"EARTH","MEAN_MOTION_DOT":"0.00003461","RCS_SIZE":"LARGE","MEAN_ELEMENT_THEORY":"SGP4","COUNTRY_CODE":"US","INCLINATION":"53.0547","OBJECT_ID":"2021-027Z","MEAN_MOTION":"15.06404698","EPHEMERIS_TYPE":"0","ARG_OF_PERICENTER":"79.2137","NORAD_CAT_ID":"48115","APOAPSIS":"548.195","SITE":"AFETR","RA_OF_ASC_NODE":"312.1622","ELEMENT_SET_NO":"999","SEMIMAJOR_AXIS":"6925.334","GP_ID":"203392138","OBJECT_TYPE":"PAYLOAD","OBJECT_NAME":"STARLINK-2452","TLE_LINE1":"1 48115U 21027Z   22132.87721387  .00003461  00000-0  25110-3 0  9990","BSTAR":"0.00025110000000","ECCENTRICITY":"0.00014380","CLASSIFICATION_TYPE":"U","PERIOD":"95.592","MEAN_ANOMALY":"280.9014","TIME_SYSTEM":"UTC"},{"BSTAR":"0.00022319000000","TLE_LINE1":"1 48116U 21027AA  22132.88461165  .00003045  00000-0  22319-3 0  9993","TIME_SYSTEM":"UTC","MEAN_ANOMALY":"286.9370","PERIOD":"95.592","CLASSIFICATION_TYPE":"U","ECCENTRICITY":"0.00015590","ELEMENT_SET_NO":"999","RA_OF_ASC_NODE":"322.1100","APOAPSIS":"548.274","NORAD_CAT_ID":"48116","SITE":"AFETR","OBJECT_TYPE":"PAYLOAD","OBJECT_NAME":"STARLINK-2454","SEMIMAJOR_AXIS":"6925.329","GP_ID":"203391888","MEAN_MOTION_DDOT":"0.0000000000000","MEAN_MOTION_DOT":"0.00003045","CENTER_NAME":"EARTH","PERIAPSIS":"546.115","DECAY_DATE":null,"MEAN_MOTION":"15.06406271","ARG_OF_PERICENTER":"73.1790","EPHEMERIS_TYPE":"0","MEAN_ELEMENT_THEORY":"SGP4","RCS_SIZE":"LARGE","OBJECT_ID":"2021-027AA","INCLINATION":"53.0540","COUNTRY_CODE":"US","LAUNCH_DATE":"2021-04-07","FILE":"3442534","REF_FRAME":"TEME","EPOCH":"2022-05-12T21:13:50.446560","REV_AT_EPOCH":"6188","TLE_LINE2":"2 48116  53.0540 322.1100 0001559  73.1790 286.9370 15.06406271 61885"},{"MEAN_MOTION":"15.06400093","ARG_OF_PERICENTER":"90.2112","EPHEMERIS_TYPE":"0","MEAN_ELEMENT_THEORY":"SGP4","RCS_SIZE":"LARGE","OBJECT_ID":"2021-027AB","INCLINATION":"53.0565","COUNTRY_CODE":"US","MEAN_MOTION_DDOT":"0.0000000000000","CENTER_NAME":"EARTH","MEAN_MOTION_DOT":"0.00002549","PERIAPSIS":"546.251","DECAY_DATE":null,"EPOCH":"2022-05-12T20:32:40.691328","REV_AT_EPOCH":"6216","TLE_LINE2":"2 48117  53.0565 302.2418 0001389  90.2112 269.9036 15.06400093 62161","LAUNCH_DATE":"2021-04-07","FILE":"3442534","REF_FRAME":"TEME","TIME_SYSTEM":"UTC","MEAN_ANOMALY":"269.9036","PERIOD":"95.592","ECCENTRICITY":"0.00013890","CLASSIFICATION_TYPE":"U","BSTAR":"0.00018996000000","TLE_LINE1":"1 48117U 21027AB  22132.85602652  .00002549  00000-0  18996-3 0  9993","OBJECT_TYPE":"PAYLOAD","OBJECT_NAME":"STARLINK-2455","SEMIMAJOR_AXIS":"6925.348","GP_ID":"203391137","ELEMENT_SET_NO":"999","RA_OF_ASC_NODE":"302.2418","APOAPSIS":"548.175","NORAD_CAT_ID":"48117","SITE":"AFETR"},{"OBJECT_TYPE":"PAYLOAD","OBJECT_NAME":"STARLINK-2458","SEMIMAJOR_AXIS":"6925.331","GP_ID":"203391387","RA_OF_ASC_NODE":"302.1935","ELEMENT_SET_NO":"999","SITE":"AFETR","NORAD_CAT_ID":"48118","APOAPSIS":"548.138","TIME_SYSTEM":"UTC","MEAN_ANOMALY":"274.7472","ECCENTRICITY":"0.00013600","CLASSIFICATION_TYPE":"U","PERIOD":"95.592","BSTAR":"0.00007568700000","TLE_LINE1":"1 48118U 21027AC  22132.86802150  .00000846  00000-0  75687-4 0  9999","REV_AT_EPOCH":"6216","EPOCH":"2022-05-12T20:49:57.057600","TLE_LINE2":"2 48118  53.0551 302.1935 0001360  85.3672 274.7472 15.06405811 62166","LAUNCH_DATE":"2021-04-07","REF_FRAME":"TEME","FILE":"3442534","EPHEMERIS_TYPE":"0","ARG_OF_PERICENTER":"85.3672","MEAN_MOTION":"15.06405811","COUNTRY_CODE":"US","OBJECT_ID":"2021-027AC","INCLINATION":"53.0551","RCS_SIZE":"LARGE","MEAN_ELEMENT_THEORY":"SGP4","CENTER_NAME":"EARTH","MEAN_MOTION_DOT":"0.00000846","MEAN_MOTION_DDOT":"0.0000000000000","DECAY_DATE":null,"PERIAPSIS":"546.254"},{"MEAN_MOTION":"15.06411987","EPHEMERIS_TYPE":"0","ARG_OF_PERICENTER":"71.4373","RCS_SIZE":"LARGE","MEAN_ELEMENT_THEORY":"SGP4","COUNTRY_CODE":"US","INCLINATION":"53.0553","OBJECT_ID":"2021-027AD","MEAN_MOTION_DDOT":"0.0000000000000","MEAN_MOTION_DOT":"-0.00000458","CENTER_NAME":"EARTH","PERIAPSIS":"546.196","DECAY_DATE":null,"EPOCH":"2022-05-12T20:44:38.555232","REV_AT_EPOCH":"6215","TLE_LINE2":"2 48119  53.0553 302.2067 0001416  71.4373 288.6769 15.06411987 62155","LAUNCH_DATE":"2021-04-07","FILE":"3442534","REF_FRAME":"TEME","TIME_SYSTEM":"UTC","MEAN_ANOMALY":"288.6769","ECCENTRICITY":"0.00014160","CLASSIFICATION_TYPE":"U","PERIOD":"95.591","BSTAR":"-0.00001185900000","TLE_LINE1":"1 48119U 21027AD  22132.86433513 -.00000458  00000-0 -11859-4 0  9995","OBJECT_NAME":"STARLINK-2459","OBJECT_TYPE":"PAYLOAD","GP_ID":"203391638","SEMIMAJOR_AXIS":"6925.312","RA_OF_ASC_NODE":"302.2067","ELEMENT_SET_NO":"999","NORAD_CAT_ID":"48119","APOAPSIS":"548.157","SITE":"AFETR"},{"OBJECT_TYPE":"PAYLOAD","OBJECT_NAME":"STARLINK-2460","SEMIMAJOR_AXIS":"6925.343","GP_ID":"203392389","RA_OF_ASC_NODE":"323.0864","ELEMENT_SET_NO":"999","NORAD_CAT_ID":"48120","APOAPSIS":"548.262","SITE":"AFETR","MEAN_ANOMALY":"282.8600","TIME_SYSTEM":"UTC","ECCENTRICITY":"0.00015220","CLASSIFICATION_TYPE":"U","PERIOD":"95.592","BSTAR":"0.00009120900000","TLE_LINE1":"1 48120U 21027AE  22132.67082712  .00001077  00000-0  91209-4 0  9990","EPOCH":"2022-05-12T16:05:59.463168","REV_AT_EPOCH":"6186","TLE_LINE2":"2 48120  53.0555 323.0864 0001522  77.2559 282.8600 15.06401669 61866","LAUNCH_DATE":"2021-04-07","FILE":"3442534","REF_FRAME":"TEME","MEAN_MOTION":"15.06401669","EPHEMERIS_TYPE":"0","ARG_OF_PERICENTER":"77.2559","RCS_SIZE":"LARGE","MEAN_ELEMENT_THEORY":"SGP4","COUNTRY_CODE":"US","OBJECT_ID":"2021-027AE","INCLINATION":"53.0555","MEAN_MOTION_DDOT":"0.0000000000000","MEAN_MOTION_DOT":"0.00001077","CENTER_NAME":"EARTH","PERIAPSIS":"546.154","DECAY_DATE":null},{"FILE":"3442534","REF_FRAME":"TEME","LAUNCH_DATE":"2021-04-07","TLE_LINE2":"2 48121  53.0541 312.6159 0001454  95.5797 264.5358 15.06411332 62006","EPOCH":"2022-05-12T18:35:56.001408","REV_AT_EPOCH":"6200","PERIAPSIS":"546.172","DECAY_DATE":null,"MEAN_MOTION_DDOT":"0.0000000000000","MEAN_MOTION_DOT":"0.00004390","CENTER_NAME":"EARTH","MEAN_ELEMENT_THEORY":"SGP4","RCS_SIZE":"LARGE","INCLINATION":"53.0541","OBJECT_ID":"2021-027AF","COUNTRY_CODE":"US","MEAN_MOTION":"15.06411332","ARG_OF_PERICENTER":"95.5797","EPHEMERIS_TYPE":"0","APOAPSIS":"548.186","NORAD_CAT_ID":"48121","SITE":"AFETR","ELEMENT_SET_NO":"999","RA_OF_ASC_NODE":"312.6159","GP_ID":"203390638","SEMIMAJOR_AXIS":"6925.314","OBJECT_TYPE":"PAYLOAD","OBJECT_NAME":"STARLINK-2462","TLE_LINE1":"1 48121U 21027AF  22132.77495372  .00004390  00000-0  31332-3 0  9993","BSTAR":"0.00031332000000","PERIOD":"95.591","ECCENTRICITY":"0.00014540","CLASSIFICATION_TYPE":"U","TIME_SYSTEM":"UTC","MEAN_ANOMALY":"264.5358"},{"REV_AT_EPOCH":"6209","EPOCH":"2022-05-12T20:13:25.341888","TLE_LINE2":"2 48122  53.0546 307.3173 0001557  69.8996 290.2160 15.06402857 62096","LAUNCH_DATE":"2021-04-07","REF_FRAME":"TEME","FILE":"3442534","ARG_OF_PERICENTER":"69.8996","EPHEMERIS_TYPE":"0","MEAN_MOTION":"15.06402857","INCLINATION":"53.0546","OBJECT_ID":"2021-027AG","COUNTRY_CODE":"US","MEAN_ELEMENT_THEORY":"SGP4","RCS_SIZE":"LARGE","CENTER_NAME":"EARTH","MEAN_MOTION_DOT":"0.00001753","MEAN_MOTION_DDOT":"0.0000000000000","DECAY_DATE":null,"PERIAPSIS":"546.127","OBJECT_NAME":"STARLINK-2463","OBJECT_TYPE":"PAYLOAD","GP_ID":"203390888","SEMIMAJOR_AXIS":"6925.340","ELEMENT_SET_NO":"999","RA_OF_ASC_NODE":"307.3173","SITE":"AFETR","APOAPSIS":"548.283","NORAD_CAT_ID":"48122","TIME_SYSTEM":"UTC","MEAN_ANOMALY":"290.2160","PERIOD":"95.592","ECCENTRICITY":"0.00015570","CLASSIFICATION_TYPE":"U","BSTAR":"0.00013654000000","TLE_LINE1":"1 48122U 21027AG  22132.84265442  .00001753  00000-0  13654-3 0  9992"},{"REV_AT_EPOCH":"6213","EPOCH":"2022-05-12T15:36:48.394368","TLE_LINE2":"2 48123  53.0565 303.1722 0001311  79.9100 280.2037 15.06395692 62134","LAUNCH_DATE":"2021-04-07","REF_FRAME":"TEME","FILE":"3442534","ARG_OF_PERICENTER":"79.9100","EPHEMERIS_TYPE":"0","MEAN_MOTION":"15.06395692","OBJECT_ID":"2021-027AH","INCLINATION":"53.0565","COUNTRY_CODE":"US","MEAN_ELEMENT_THEORY":"SGP4","RCS_SIZE":"LARGE","CENTER_NAME":"EARTH","MEAN_MOTION_DOT":"0.00000393","MEAN_MOTION_DDOT":"0.0000000000000","DECAY_DATE":null,"PERIAPSIS":"546.319","OBJECT_NAME":"STARLINK-2464","OBJECT_TYPE":"PAYLOAD","GP_ID":"203392139","SEMIMAJOR_AXIS":"6925.362","ELEMENT_SET_NO":"999","RA_OF_ASC_NODE":"303.1722","SITE":"AFETR","APOAPSIS":"548.135","NORAD_CAT_ID":"48123","MEAN_ANOMALY":"280.2037","TIME_SYSTEM":"UTC","PERIOD":"95.592","ECCENTRICITY":"0.00013110","CLASSIFICATION_TYPE":"U","BSTAR":"0.00004529700000","TLE_LINE1":"1 48123U 21027AH  22132.65056012  .00000393  00000-0  45297-4 0  9991"}];
